[{"OBJECT_NAME":"ONEWEB-0171","OBJECT_ID":"2021-025AE","EPOCH":"2025-11-08T04:18:22.401216","MEAN_MOTION":13.13472115,"ECCENTRICITY":0.0001944,"INCLINATION":87.9011,"RA_OF_ASC_NODE":4.1708,"ARG_OF_PERICENTER":98.6588,"MEAN_ANOMALY":261.4761,"EPHEMERIS_TYPE":0,"CLASSIFICATION_TYPE":"U","NORAD_CAT_ID":48070,"ELEMENT_SET_NO":999,"REV_AT_EPOCH":22460,"BSTAR":-0.00075814,"MEAN_MOTION_DOT":-2.64e-6,"MEAN_MOTION_DDOT":0},{"OBJECT_NAME":"ONEWEB-0172","OBJECT_ID":"2021-025AF","EPOCH":"2025-11-08T03:49:08.227200","MEAN_MOTION":13.13469155,"ECCENTRICITY":0.0001983,"INCLINATION":87.9031,"RA_OF_ASC_NODE":4.1509,"ARG_OF_PERICENTER":96.4101,"MEAN_ANOMALY":263.7254,"EPHEMERIS_TYPE":0,"CLASSIFICATION_TYPE":"U","NORAD_CAT_ID":48071,"ELEMENT_SET_NO":999,"REV_AT_EPOCH":22549,"BSTAR":-1.9017e-5,"MEAN_MOTION_DOT":6.0e-8,"MEAN_MOTION_DDOT":0},{"OBJECT_NAME":"ONEWEB-0174","OBJECT_ID":"2021-025AG","EPOCH":"2025-11-08T03:22:19.581888","MEAN_MOTION":13.13469998,"ECCENTRICITY":0.0001717,"INCLINATION":87.9021,"RA_OF_ASC_NODE":4.1624,"ARG_OF_PERICENTER":93.1127,"MEAN_ANOMALY":267.0199,"EPHEMERIS_TYPE":0,"CLASSIFICATION_TYPE":"U","NORAD_CAT_ID":48072,"ELEMENT_SET_NO":999,"REV_AT_EPOCH":22481,"BSTAR":0.0010645,"MEAN_MOTION_DOT":4.02e-6,"MEAN_MOTION_DDOT":0},{"OBJECT_NAME":"ONEWEB-0175","OBJECT_ID":"2021-025AH","EPOCH":"2025-11-08T02:16:29.215776","MEAN_MOTION":13.13474986,"ECCENTRICITY":0.0002633,"INCLINATION":87.9023,"RA_OF_ASC_NODE":4.139,"ARG_OF_PERICENTER":103.1384,"MEAN_ANOMALY":257.0039,"EPHEMERIS_TYPE":0,"CLASSIFICATION_TYPE":"U","NORAD_CAT_ID":48073,"ELEMENT_SET_NO":999,"REV_AT_EPOCH":22446,"BSTAR":-0.0046118,"MEAN_MOTION_DOT":-1.671e-5,"MEAN_MOTION_DDOT":0},{"OBJECT_NAME":"ONEWEB-0177","OBJECT_ID":"2021-025AJ","EPOCH":"2025-11-08T04:23:14.208576","MEAN_MOTION":13.13468852,"ECCENTRICITY":0.0001845,"INCLINATION":87.9032,"RA_OF_ASC_NODE":4.1402,"ARG_OF_PERICENTER":92.5153,"MEAN_ANOMALY":267.6188,"EPHEMERIS_TYPE":0,"CLASSIFICATION_TYPE":"U","NORAD_CAT_ID":48074,"ELEMENT_SET_NO":999,"REV_AT_EPOCH":22466,"BSTAR":-0.00066029,"MEAN_MOTION_DOT":-2.28e-6,"MEAN_MOTION_DDOT":0},{"OBJECT_NAME":"ONEWEB-0178","OBJECT_ID":"2021-025AK","EPOCH":"2025-11-08T03:00:35.106912","MEAN_MOTION":13.1347089,"ECCENTRICITY":0.0002053,"INCLINATION":87.9023,"RA_OF_ASC_NODE":4.1956,"ARG_OF_PERICENTER":93.3073,"MEAN_ANOMALY":266.8291,"EPHEMERIS_TYPE":0,"CLASSIFICATION_TYPE":"U","NORAD_CAT_ID":48075,"ELEMENT_SET_NO":999,"REV_AT_EPOCH":22470,"BSTAR":0.00047262,"MEAN_MOTION_DOT":1.85e-6,"MEAN_MOTION_DDOT":0},{"OBJECT_NAME":"ONEWEB-0108","OBJECT_ID":"2021-025AL","EPOCH":"2025-11-08T03:51:33.444864","MEAN_MOTION":13.13468523,"ECCENTRICITY":0.0001599,"INCLINATION":87.9029,"RA_OF_ASC_NODE":4.1346,"ARG_OF_PERICENTER":101.6773,"MEAN_ANOMALY":258.4535,"EPHEMERIS_TYPE":0,"CLASSIFICATION_TYPE":"U","NORAD_CAT_ID":48076,"ELEMENT_SET_NO":999,"REV_AT_EPOCH":22463,"BSTAR":-0.00014016,"MEAN_MOTION_DOT":-3.8e-7,"MEAN_MOTION_DDOT":0},{"OBJECT_NAME":"ONEWEB-0169","OBJECT_ID":"2021-025AM","EPOCH":"2025-11-08T04:37:53.139360","MEAN_MOTION":13.13470895,"ECCENTRICITY":0.0001672,"INCLINATION":87.9023,"RA_OF_ASC_NODE":4.1504,"ARG_OF_PERICENTER":101.0501,"MEAN_ANOMALY":259.0816,"EPHEMERIS_TYPE":0,"CLASSIFICATION_TYPE":"U","NORAD_CAT_ID":48077,"ELEMENT_SET_NO":999,"REV_AT_EPOCH":22329,"BSTAR":-9.9132e-5,"MEAN_MOTION_DOT":-2.3e-7,"MEAN_MOTION_DDOT":0},{"OBJECT_NAME":"ONEWEB-0176","OBJECT_ID":"2021-031A","EPOCH":"2025-11-08T03:11:27.142656","MEAN_MOTION":13.14501664,"ECCENTRICITY":0.0002026,"INCLINATION":87.9003,"RA_OF_ASC_NODE":333.7408,"ARG_OF_PERICENTER":93.8009,"MEAN_ANOMALY":266.3352,"EPHEMERIS_TYPE":0,"CLASSIFICATION_TYPE":"U","NORAD_CAT_ID":48210,"ELEMENT_SET_NO":999,"REV_AT_EPOCH":21927,"BSTAR":0.00078742,"MEAN_MOTION_DOT":3.05e-6,"MEAN_MOTION_DDOT":0},{"OBJECT_NAME":"ONEWEB-0184","OBJECT_ID":"2021-031B","EPOCH":"2025-11-08T02:32:37.605120","MEAN_MOTION":13.14501845,"ECCENTRICITY":0.0002677,"INCLINATION":87.9009,"RA_OF_ASC_NODE":333.7229,"ARG_OF_PERICENTER":97.7645,"MEAN_ANOMALY":262.3788,"EPHEMERIS_TYPE":0,"CLASSIFICATION_TYPE":"U","NORAD_CAT_ID":48211,"ELEMENT_SET_NO":999,"REV_AT_EPOCH":21924,"BSTAR":-0.00050187,"MEAN_MOTION_DOT":-1.73e-6,"MEAN_MOTION_DDOT":0},{"OBJECT_NAME":"ONEWEB-0179","OBJECT_ID":"2021-031C","EPOCH":"2025-11-08T01:50:22.012224","MEAN_MOTION":13.14504064,"ECCENTRICITY":0.0001808,"INCLINATION":87.9003,"RA_OF_ASC_NODE":333.7395,"ARG_OF_PERICENTER":90.4102,"MEAN_ANOMALY":269.7235,"EPHEMERIS_TYPE":0,"CLASSIFICATION_TYPE":"U","NORAD_CAT_ID":48212,"ELEMENT_SET_NO":999,"REV_AT_EPOCH":21928,"BSTAR":-7.5802e-5,"MEAN_MOTION_DOT":-1.5e-7,"MEAN_MOTION_DDOT":0},{"OBJECT_NAME":"ONEWEB-0180","OBJECT_ID":"2021-031D","EPOCH":"2025-11-08T02:37:10.110720","MEAN_MOTION":13.1450429,"ECCENTRICITY":0.0002006,"INCLINATION":87.9009,"RA_OF_ASC_NODE":333.7283,"ARG_OF_PERICENTER":85.732,"MEAN_ANOMALY":274.4039,"EPHEMERIS_TYPE":0,"CLASSIFICATION_TYPE":"U","NORAD_CAT_ID":48213,"ELEMENT_SET_NO":999,"REV_AT_EPOCH":21917,"BSTAR":-0.00011292,"MEAN_MOTION_DOT":-2.9e-7,"MEAN_MOTION_DDOT":0},{"OBJECT_NAME":"ONEWEB-0218","OBJECT_ID":"2021-031E","EPOCH":"2025-11-08T03:09:09.598176","MEAN_MOTION":13.14503665,"ECCENTRICITY":0.0002803,"INCLINATION":87.9012,"RA_OF_ASC_NODE":333.7242,"ARG_OF_PERICENTER":93.6173,"MEAN_ANOMALY":266.5278,"EPHEMERIS_TYPE":0,"CLASSIFICATION_TYPE":"U","NORAD_CAT_ID":48214,"ELEMENT_SET_NO":999,"REV_AT_EPOCH":21933,"BSTAR":0.00071144,"MEAN_MOTION_DOT":2.77e-6,"MEAN_MOTION_DDOT":0},{"OBJECT_NAME":"ONEWEB-0209","OBJECT_ID":"2021-031F","EPOCH":"2025-11-08T02:53:09.530016","MEAN_MOTION":13.14504481,"ECCENTRICITY":0.0001847,"INCLINATION":87.9003,"RA_OF_ASC_NODE":333.7667,"ARG_OF_PERICENTER":86.5891,"MEAN_ANOMALY":273.545,"EPHEMERIS_TYPE":0,"CLASSIFICATION_TYPE":"U","NORAD_CAT_ID":48215,"ELEMENT_SET_NO":999,"REV_AT_EPOCH":21933,"BSTAR":0.00038327,"MEAN_MOTION_DOT":1.55e-6,"MEAN_MOTION_DDOT":0},{"OBJECT_NAME":"ONEWEB-0198","OBJECT_ID":"2021-031G","EPOCH":"2025-11-08T02:30:31.940640","MEAN_MOTION":13.14501764,"ECCENTRICITY":0.0002219,"INCLINATION":87.9,"RA_OF_ASC_NODE":333.7673,"ARG_OF_PERICENTER":85.8412,"MEAN_ANOMALY":274.2972,"EPHEMERIS_TYPE":0,"CLASSIFICATION_TYPE":"U","NORAD_CAT_ID":48216,"ELEMENT_SET_NO":999,"REV_AT_EPOCH":21944,"BSTAR":-0.00049901,"MEAN_MOTION_DOT":-1.72e-6,"MEAN_MOTION_DDOT":0},{"OBJECT_NAME":"ONEWEB-0189","OBJECT_ID":"2021-031H","EPOCH":"2025-11-08T02:48:36.067104","MEAN_MOTION":13.14501832,"ECCENTRICITY":0.0002165,"INCLINATION":87.9,"RA_OF_ASC_NODE":333.738,"ARG_OF_PERICENTER":87.3008,"MEAN_ANOMALY":272.837,"EPHEMERIS_TYPE":0,"CLASSIFICATION_TYPE":"U","NORAD_CAT_ID":48217,"ELEMENT_SET_NO":999,"REV_AT_EPOCH":21918,"BSTAR":0.00028075,"MEAN_MOTION_DOT":1.17e-6,"MEAN_MOTION_DDOT":0},{"OBJECT_NAME":"ONEWEB-0196","OBJECT_ID":"2021-031J","EPOCH":"2025-11-08T02:16:36.652224","MEAN_MOTION":13.14500887,"ECCENTRICITY":0.0001986,"INCLINATION":87.8996,"RA_OF_ASC_NODE":333.7575,"ARG_OF_PERICENTER":89.6614,"MEAN_ANOMALY":270.4743,"EPHEMERIS_TYPE":0,"CLASSIFICATION_TYPE":"U","NORAD_CAT_ID":48218,"ELEMENT_SET_NO":999,"REV_AT_EPOCH":21918,"BSTAR":-0.00044075,"MEAN_MOTION_DOT":-1.51e-6,"MEAN_MOTION_DDOT":0}]
