ONEWEB-0171             
1 48070U 21025AE  25312.17942594 -.00000264  00000+0 -75814-3 0  9994
2 48070  87.9011   4.1708 0001944  98.6588 261.4761 13.13472115224608
ONEWEB-0172             
1 48071U 21025AF  25312.15912300  .00000006  00000+0 -19017-4 0  9992
2 48071  87.9031   4.1509 0001983  96.4101 263.7254 13.13469155225490
ONEWEB-0174             
1 48072U 21025AG  25312.14050442  .00000402  00000+0  10645-2 0  9997
2 48072  87.9021   4.1624 0001717  93.1127 267.0199 13.13469998224810
ONEWEB-0175             
1 48073U 21025AH  25312.09478259 -.00001671  00000+0 -46118-2 0  9997
2 48073  87.9023   4.1390 0002633 103.1384 257.0039 13.13474986224464
ONEWEB-0177             
1 48074U 21025AJ  25312.18280334 -.00000228  00000+0 -66029-3 0  9994
2 48074  87.9032   4.1402 0001845  92.5153 267.6188 13.13468852224667
ONEWEB-0178             
1 48075U 21025AK  25312.12540633  .00000185  00000+0  47262-3 0  9998
2 48075  87.9023   4.1956 0002053  93.3073 266.8291 13.13470890224700
ONEWEB-0108             
1 48076U 21025AL  25312.16080376 -.00000038  00000+0 -14016-3 0  9996
2 48076  87.9029   4.1346 0001599 101.6773 258.4535 13.13468523224634
ONEWEB-0169             
1 48077U 21025AM  25312.19297615 -.00000023  00000+0 -99132-4 0  9993
2 48077  87.9023   4.1504 0001672 101.0501 259.0816 13.13470895223295
ONEWEB-0176             
1 48210U 21031A   25312.13295304  .00000305  00000+0  78742-3 0  9990
2 48210  87.9003 333.7408 0002026  93.8009 266.3352 13.14501664219270
ONEWEB-0184             
1 48211U 21031B   25312.10599080 -.00000173  00000+0 -50187-3 0  9994
2 48211  87.9009 333.7229 0002677  97.7645 262.3788 13.14501845219246
ONEWEB-0179             
1 48212U 21031C   25312.07664366 -.00000015  00000+0 -75802-4 0  9998
2 48212  87.9003 333.7395 0001808  90.4102 269.7235 13.14504064219286
ONEWEB-0180             
1 48213U 21031D   25312.10914480 -.00000029  00000+0 -11292-3 0  9995
2 48213  87.9009 333.7283 0002006  85.7320 274.4039 13.14504290219173
ONEWEB-0218             
1 48214U 21031E   25312.13136109  .00000277  00000+0  71144-3 0  9998
2 48214  87.9012 333.7242 0002803  93.6173 266.5278 13.14503665219332
ONEWEB-0209             
1 48215U 21031F   25312.12024919  .00000155  00000+0  38327-3 0  9994
2 48215  87.9003 333.7667 0001847  86.5891 273.5450 13.14504481219336
ONEWEB-0198             
1 48216U 21031G   25312.10453635 -.00000172  00000+0 -49901-3 0  9995
2 48216  87.9000 333.7673 0002219  85.8412 274.2972 13.14501764219446
ONEWEB-0189             
1 48217U 21031H   25312.11708411  .00000117  00000+0  28075-3 0  9998
2 48217  87.9000 333.7380 0002165  87.3008 272.8370 13.14501832219183
ONEWEB-0196             
1 48218U 21031J   25312.09486866 -.00000151  00000+0 -44075-3 0  9991
2 48218  87.8996 333.7575 0001986  89.6614 270.4743 13.14500887219188
